IRIDIUM 57              
1 25273U 98019B   24337.63759159  .00001057  00000+0  36017-3 0  9992
2 25273  86.3986 227.5341 0002142  81.1806 278.9633 14.35614470396582
IRIDIUM 63              
1 25286U 98021B   24337.80203877  .00001167  00000+0  39365-3 0  9990
2 25286  86.4000 164.4602 0001963  92.6009 267.5413 14.36221051395652
IRIDIUM 69              
1 25319U 98026A   24337.85649892  .00001128  00000+0  34802-3 0  9996
2 25319  86.4006 178.3002 0001708   7.9481 352.1745 14.40563971394791
IRIDIUM 71              
1 25320U 98026B   24337.89220622  .00001119  00000+0  34359-3 0  9995
2 25320  86.3998 173.0182 0003359  49.6054 310.5438 14.40802442395322
IRIDIUM 73              
1 25344U 98032C   24337.86193114  .00001977  00000+0  49316-3 0  9991
2 25344  86.4408 130.1859 0001528  77.8953 282.2423 14.51195889402080
IRIDIUM 82              
1 25467U 98051A   24337.70653891  .00029010  00000+0  11632-2 0  9991
2 25467  86.3749 205.3035 0106676 318.1942  41.1186 15.19678756393994
